[{"OBJECT_NAME":"SITRO-AIS 8 (ANOKHIN)","OBJECT_ID":"2023-091AD","EPOCH":"2026-03-09T23:44:40.058592","MEAN_MOTION":15.29359179,"ECCENTRICITY":0.0012509,"INCLINATION":97.5169,"RA_OF_ASC_NODE":133.2823,"ARG_OF_PERICENTER":92.0171,"MEAN_ANOMALY":268.2501,"EPHEMERIS_TYPE":0,"CLASSIFICATION_TYPE":"U","NORAD_CAT_ID":57193,"ELEMENT_SET_NO":999,"REV_AT_EPOCH":14927,"BSTAR":0.00064982524,"MEAN_MOTION_DOT":0.00018494,"MEAN_MOTION_DDOT":0},{"OBJECT_NAME":"STARLINK-31524","OBJECT_ID":"2024-071Y","EPOCH":"2026-03-09T10:16:58.239840","MEAN_MOTION":15.27565301,"ECCENTRICITY":0.00012668,"INCLINATION":43.0057,"RA_OF_ASC_NODE":334.2763,"ARG_OF_PERICENTER":272.5503,"MEAN_ANOMALY":87.5204,"EPHEMERIS_TYPE":0,"CLASSIFICATION_TYPE":"U","NORAD_CAT_ID":59506,"ELEMENT_SET_NO":999,"REV_AT_EPOCH":10824,"BSTAR":-5.2636536e-5,"MEAN_MOTION_DOT":-1.71e-5,"MEAN_MOTION_DDOT":0}]
